COSMOS 1408 DEB         
1 50921U 82092AVQ 22320.69751904  .00022372  00000+0  59818-3 0  9997
2 50921  82.5703 116.6037 0028292 261.9467  97.8568 15.37513983 48466
COSMOS 1408 DEB         
1 50923U 82092AVS 22320.37734500  .00078938  00000+0  10797-2 0  9998
2 50923  82.3154  98.6590 0008841 290.0342  69.9960 15.57090915 48724
COSMOS 1408 DEB         
1 50925U 82092AVU 22319.95595371  .00025949  00000+0  14283-2 0  9991
2 50925  82.4029 132.0231 0187489 322.0338  36.7786 15.00058411 47034
COSMOS 1408 DEB         
1 50926U 82092AVV 22320.44080969  .00023647  00000+0  10097-2 0  9992
2 50926  82.5712 127.0142 0091420 215.9710 143.5351 15.18948357 49092
COSMOS 1408 DEB         
1 50927U 82092AVW 22320.40360367  .00418125  00000+0  17662-2 0  9996
2 50927  82.6041 110.7785 0012405  48.1718 312.0608 15.84270884 48959
COSMOS 1408 DEB         
1 50928U 82092AVX 22320.58521333  .00325683  00000+0  35107-2 0  9998
2 50928  82.5339 118.6816 0028805 249.5735 110.2429 15.62155468 48313
COSMOS 1408 DEB         
1 50935U 82092AWE 22320.41521209  .00710840  00000+0  26362-2 0  9996
2 50935  82.4792 107.6196 0003834  81.0477 279.1227 15.86392251 48825
COSMOS 1408 DEB         
1 50937U 82092AWG 22320.40708468  .00013038  00000+0  45031-3 0  9991
2 50937  82.5800 120.7596 0043378 184.7247 175.3590 15.28882480 48263
COSMOS 1408 DEB         
1 50938U 82092AWH 22320.90197139  .00104864  00000+0  15361-2 0  9994
2 50938  82.5540 113.3775 0009606 197.9263 162.1654 15.55139884 48697
COSMOS 1408 DEB         
1 50942U 82092AWM 22320.42602979  .00041850  00000+0  45905-3 0  9992
2 50942  82.6445 110.1124 0040666  23.5936 336.7175 15.61977895 50286
COSMOS 1408 DEB         
1 50945U 82092AWQ 22321.05433337  .00058556  00000+0  17370-2 0  9990
2 50945  82.5534 129.5421 0149946 305.2148  53.5125 15.24129684 48760
COSMOS 1408 DEB         
1 50956U 82092AXB 22320.87339814  .00049705  00000+0  14615-2 0  9991
2 50956  82.5543 120.7420 0050301 204.6408 155.2432 15.33606066 49273
COSMOS 1408 DEB         
1 50967U 82092AXN 22319.95748157  .00010162  00000+0  35273-3 0  9993
2 50967  82.7269 128.0171 0018930 200.9196 159.1272 15.29459793 49140
COSMOS 1408 DEB         
1 50970U 82092AXR 22320.67621754  .00314260  00000+0  20301-2 0  9992
2 50970  82.5526 110.1191 0006909 301.2650  58.7937 15.75185785 49763
COSMOS 1408 DEB         
1 50972U 82092AXT 22320.92916119  .00034917  00000+0  91700-3 0  9994
2 50972  82.5897 118.6930 0036304 164.6899 195.5454 15.37765621 49358
COSMOS 1408 DEB         
1 50973U 82092AXU 22320.41735019  .00061332  00000+0  12199-2 0  9992
2 50973  82.4955 112.7700 0024570 169.9672 190.2073 15.46363565 49419
COSMOS 1408 DEB         
1 50979U 82092AYA 22320.92446153  .00043477  00000+0  11491-2 0  9996
2 50979  82.6760 124.0917 0035543 180.1036 180.0209 15.37575118 48087
COSMOS 1408 DEB         
1 51167U 82092AYR 22320.45378979  .00042571  00000+0  19626-2 0  9996
2 51167  82.4256 126.2793 0121533 260.4735  98.2745 15.13631383 47652
COSMOS 1408 DEB         
1 51172U 82092AYW 22320.71052014  .00027562  00000+0  39569-3 0  9992
2 51172  82.6549 112.6699 0045130  43.2971 317.1815 15.54723339 49107
COSMOS 1408 DEB         
1 51184U 82092AZJ 22320.42264154  .00006175  00000+0  19533-3 0  9999
2 51184  82.4976 113.5763 0027789 150.3364 209.9460 15.32171276 47475
COSMOS 1408 DEB         
1 51192U 82092AZS 22320.42367329  .00068127  00000+0  13181-2 0  9993
2 51192  82.5835 116.5037 0020101 152.0203 208.2133 15.47254765 47591
COSMOS 1408 DEB         
1 51198U 82092AZY 22320.71363155  .00553011  00000+0  39092-2 0  9994
2 51198  82.5548 117.7380 0019050 182.6187 177.4980 15.72236448 47552
COSMOS 1408 DEB         
1 51215U 82092BAR 22320.40042519  .00023611  00000+0  55626-3 0  9998
2 51215  82.5748 115.2251 0005602 204.1854 155.9131 15.41777553 48578
COSMOS 1408 DEB         
1 51221U 82092BAX 22320.93924594  .00022382  00000+0  67991-3 0  9997
2 51221  82.5557 118.3008 0033040 206.9871 152.9655 15.33383187 48398
COSMOS 1408 DEB         
1 51225U 82092BBB 22320.42465473  .00007534  00000+0  27198-3 0  9998
2 51225  82.4686 116.3807 0079183 284.0181  75.2262 15.25317879 48182
COSMOS 1408 DEB         
1 51229U 82092BBF 22320.44458192  .00018706  00000+0  85961-3 0  9999
2 51229  82.5796 128.5782 0110138 221.3378 137.9483 15.14889958 48815
COSMOS 1408 DEB         
1 51231U 82092BBH 22320.86821158  .00016891  00000+0  48730-3 0  9990
2 51231  82.5711 116.9726 0030345 263.0220  96.7572 15.35094962 47247
COSMOS 1408 DEB         
1 51267U 82092BCV 22319.41467063  .00092460  00000+0  25181-2 0  9999
2 51267  82.5177 122.0517 0064012 206.1597 153.6410 15.35043508 49900
COSMOS 1408 DEB         
1 51271U 82092BCZ 22320.41917019  .00028859  00000+0  50683-3 0  9994
2 51271  82.6936 117.7203 0021534 310.7735  49.1647 15.50099388 47835
COSMOS 1408 DEB         
1 51272U 82092BDA 22320.85854735  .01416870  10336-2  35369-2 0  9992
2 51272  82.5590 113.1094 0009699 296.0509  63.9768 15.95934278 48768
COSMOS 1408 DEB         
1 51289U 82092BDF 22320.92310362  .00968522  00000+0  44264-2 0  9994
2 51289  82.5842 119.0689 0013865 165.7468 194.4195 15.81226192 47595
COSMOS 1408 DEB         
1 51302U 82092BDU 22320.45572408  .00504365  00000+0  52746-2 0  9994
2 51302  82.1736 113.5122 0129986 226.7220 132.3132 15.53354836 46728
COSMOS 1408 DEB         
1 51305U 82092BDX 22320.39746876  .00011898  00000+0  28203-3 0  9998
2 51305  82.5056 110.2621 0039298  96.7651 263.8069 15.40754964 47673
COSMOS 1408 DEB         
1 51309U 82092BEB 22320.86798352  .00040034  00000+0  84577-3 0  9990
2 51309  82.5755 114.6092 0021322 270.1971  89.6834 15.44749916 46381
COSMOS 1408 DEB         
1 51315U 82092BEH 22320.42069587  .00114446  00000+0  15923-2 0  9997
2 51315  82.4886 110.0890 0009591 182.8372 177.2830 15.56510834 47543
COSMOS 1408 DEB         
1 51316U 82092BEJ 22320.47103609  .00046104  00000+0  23039-2 0  9999
2 51316  82.5111 138.4847 0178425 319.3483  39.4532 15.04362240 46169
COSMOS 1408 DEB         
1 51322U 82092BEQ 22319.23120035  .00011672  00000+0  35997-3 0  9999
2 51322  82.7430 129.5164 0083164 284.8212  74.3827 15.30017077 47212
COSMOS 1408 DEB         
1 51325U 82092BET 22320.78756610  .00045731  00000+0  17870-2 0  9990
2 51325  82.5472 124.8315 0059279 275.9153  83.5329 15.24015259 45782
COSMOS 1408 DEB         
1 51338U 82092BFG 22320.41374598  .00035301  00000+0  13119-2 0  9999
2 51338  82.6180 127.6877 0074755 212.8586 146.7994 15.24721019 45545
COSMOS 1408 DEB         
1 51341U 82092BFK 22320.45623676  .00074844  00000+0  19039-2 0  9993
2 51341  82.6112 123.6868 0042518 213.9621 145.8902 15.38356551 47286
COSMOS 1408 DEB         
1 51349U 82092BFT 22321.21438004  .00088757  00000+0  21578-2 0  9994
2 51349  82.6244 125.5269 0061779 192.0201 167.9575 15.38633458 47349
COSMOS 1408 DEB         
1 51361U 82092BGF 22319.38897626  .00087163  00000+0  68824-3 0  9998
2 51361  82.6415 109.0227 0031813 348.6112  11.4426 15.70397785 48121
COSMOS 1408 DEB         
1 51365U 82092BGK 22320.86076102  .03598988  20534-1  69456-2 0  9997
2 51365  82.5147 120.3589 0022108 297.7722  62.1316 16.03692247 47208
COSMOS 1408 DEB         
1 51366U 82092BGL 22320.71667275  .00186305  00000+0  28023-2 0  9991
2 51366  82.4873 115.7314 0036427 185.7648 174.3191 15.53433090 48380
COSMOS 1408 DEB         
1 51367U 82092BGM 22320.86329179  .00080870  00000+0  13394-2 0  9991
2 51367  82.5948 115.5079 0009430 201.5642 158.5214 15.51818749 47583
COSMOS 1408 DEB         
1 51375U 82092BGV 22321.13552113  .00075578  00000+0  16657-2 0  9991
2 51375  82.5528 117.9711 0037128 186.7901 173.2849 15.42883592 47353
COSMOS 1408 DEB         
1 51376U 82092BGW 22320.68519151  .00052322  00000+0  65705-3 0  9997
2 51376  82.6901 114.9681 0023722  36.5779 323.7092 15.59145510 48984
COSMOS 1408 DEB         
1 51389U 82092BHK 22320.70228266  .00043737  00000+0  12163-2 0  9997
2 51389  82.5172 117.1561 0041420 192.8997 167.1192 15.35771304 47241
COSMOS 1408 DEB         
1 51393U 82092BHP 22320.98292892  .00088773  00000+0  29573-2 0  9990
2 51393  82.8350 146.7949 0118776 285.9607  72.8571 15.24162934 46373
COSMOS 1408 DEB         
1 51400U 82092BHW 22320.42971961  .00044430  00000+0  10529-2 0  9992
2 51400  82.5216 114.8613 0025569 176.2344 183.9100 15.41210684 47199
COSMOS 1408 DEB         
1 51404U 82092BJA 22320.88493194  .00056042  00000+0  72263-3 0  9999
2 51404  82.5210 106.4051 0017463  41.5301 318.7278 15.58596821 48633
COSMOS 1408 DEB         
1 51407U 82092BJD 22319.43986336  .00163808  00000+0  47214-2 0  9992
2 51407  82.5315 130.6802 0105420 233.6777 125.4696 15.29706420 47190
COSMOS 1408 DEB         
1 51413U 82092BJK 22321.12142818  .00054562  00000+0  61032-3 0  9998
2 51413  82.4904 102.7816 0033422  44.4704 315.9227 15.61794872 47904
COSMOS 1408 DEB         
1 51424U 82092BJW 22320.87673420  .00049797  00000+0  14039-2 0  9997
2 51424  82.4776 118.2498 0080737 277.9455  81.2630 15.32924890 46945
COSMOS 1408 DEB         
1 51430U 82092BKC 22320.43854567  .00020155  00000+0  83321-3 0  9997
2 51430  82.5866 126.5261 0074996 226.5383 132.9601 15.21247571 45812
COSMOS 1408 DEB         
1 51435U 82092BKH 22320.42878620  .00007269  00000+0  34036-3 0  9997
2 51435  82.5615 125.6736 0081363 222.1262 137.3701 15.16574471 45816
COSMOS 1408 DEB         
1 51436U 82092BKJ 22319.45618104  .00193073  00000+0  20810-2 0  9991
2 51436  82.5078 110.8875 0004922 203.8492 156.2539 15.63040617 47629
COSMOS 1408 DEB         
1 51515U 82092BKQ 22320.21185023  .00015837  00000+0  73209-3 0  9996
2 51515  82.5706 128.2726 0109331 216.5734 142.8001 15.14766690 43637
COSMOS 1408 DEB         
1 51522U 82092BKX 22319.16558458  .00062766  00000+0  12763-2 0  9992
2 51522  82.6633 122.6298 0037543 269.6117  90.0830 15.45270010 45890
COSMOS 1408 DEB         
1 51523U 82092BKY 22320.39793425  .00078327  00000+0  12459-2 0  9997
2 51523  82.5676 114.0754 0008376 225.7471 134.3096 15.52966141 44549
